SL-3 R/B                
1 13403U 82079B   25356.86015540  .00006067  00000+0  24915-3 0  9999
2 13403  81.1481 283.7308 0026956  66.5610 293.8452 15.23699938365999
SL-14 R/B               
1 13553U 82092B   25356.64132306  .00000420  00000+0  44511-4 0  9998
2 13553  82.5674 213.4517 0019926 192.7618 221.6480 14.86564547317481
SL-3 R/B                
1 13819U 83010B   25356.36609743  .00015834  00000+0  34830-3 0  9994
2 13819  81.1051  96.8674 0016657 317.0227  42.9714 15.43703186346005
SL-3 R/B                
1 14208U 83075B   25356.94855641  .00011489  00000+0  32363-3 0  9993
2 14208  97.6106 353.7756 0023811 139.9427 220.3578 15.36329746318366
COSMOS 1536             
1 14699U 84013A   25356.92727204  .00006966  00000+0  29739-3 0  9998
2 14699  82.5442 184.0602 0014323 187.8294 172.2722 15.22630662260935
SL-14 R/B               
1 14820U 84027B   25356.85883964  .00000466  00000+0  50591-4 0  9997
2 14820  82.5421 317.0663 0016764 224.3824 135.6050 14.85884514236227
SL-8 R/B                
1 15483U 85006B   25356.86248593  .00000245  00000+0  89908-4 0  9994
2 15483  74.0460  42.5107 0019124 332.6131 200.6940 14.37726911142985
SL-12 R/B(2)            
1 15772U 85042D   25356.87813312  .00000046  00000+0  42441-4 0  9993
2 15772  71.1073 250.0020 0037356 246.5821 185.8862 14.21954854103470
SL-14 R/B               
1 15945U 85069B   25356.79970356  .00000484  00000+0  51985-4 0  9996
2 15945  82.5273  97.2460 0020338  87.5919 272.7626 14.86335324161410
SL-16 R/B               
1 16182U 85097B   25356.94848705 -.00000115  00000+0 -33722-4 0  9992
2 16182  71.0038 302.1106 0007371 354.5565  69.9367 14.16587832 76360
SL-14 R/B               
1 16496U 86006B   25356.93050179  .00000583  00000+0  59214-4 0  9991
2 16496  82.5268 331.9617 0077063 165.9599 194.3787 14.86683956137800
COSMOS 1743             
1 16719U 86034A   25356.83874978  .00031758  00000+0  51304-3 0  9999
2 16719  82.5349 154.0975 0004923 210.5651 149.5315 15.52697265168300
