CCSDS_OMM_VERS = 2.0
CREATION_DATE  = 
ORIGINATOR     = 

OBJECT_NAME    = SL-3 R/B
OBJECT_ID      = 1982-079B
CENTER_NAME    = EARTH
REF_FRAME      = TEME
TIME_SYSTEM    = UTC
MEAN_ELEMENT_THEORY = SGP/SGP4

EPOCH          = 2025-12-22T20:38:37.426560
MEAN_MOTION    = 15.23699938
ECCENTRICITY   = .00269567
INCLINATION    = 81.1481
RA_OF_ASC_NODE = 283.7308
ARG_OF_PERICENTER = 66.5610
MEAN_ANOMALY   = 293.8452

EPHEMERIS_TYPE = 0
CLASSIFICATION_TYPE = U
NORAD_CAT_ID   = 13403
ELEMENT_SET_NO = 999
REV_AT_EPOCH   = 36599
BSTAR          = .24914536E-3
MEAN_MOTION_DOT = .6067E-4
MEAN_MOTION_DDOT = 0

CCSDS_OMM_VERS = 2.0
CREATION_DATE  = 
ORIGINATOR     = 

OBJECT_NAME    = SL-14 R/B
OBJECT_ID      = 1982-092B
CENTER_NAME    = EARTH
REF_FRAME      = TEME
TIME_SYSTEM    = UTC
MEAN_ELEMENT_THEORY = SGP/SGP4

EPOCH          = 2025-12-22T15:23:30.312384
MEAN_MOTION    = 14.86564547
ECCENTRICITY   = .00199269
INCLINATION    = 82.5674
RA_OF_ASC_NODE = 213.4517
ARG_OF_PERICENTER = 192.7618
MEAN_ANOMALY   = 221.6480

EPHEMERIS_TYPE = 0
CLASSIFICATION_TYPE = U
NORAD_CAT_ID   = 13553
ELEMENT_SET_NO = 999
REV_AT_EPOCH   = 31748
BSTAR          = .44510886E-4
MEAN_MOTION_DOT = .42E-5
MEAN_MOTION_DDOT = 0

CCSDS_OMM_VERS = 2.0
CREATION_DATE  = 
ORIGINATOR     = 

OBJECT_NAME    = SL-3 R/B
OBJECT_ID      = 1983-010B
CENTER_NAME    = EARTH
REF_FRAME      = TEME
TIME_SYSTEM    = UTC
MEAN_ELEMENT_THEORY = SGP/SGP4

EPOCH          = 2025-12-22T08:47:10.817952
MEAN_MOTION    = 15.43703186
ECCENTRICITY   = .00166576
INCLINATION    = 81.1051
RA_OF_ASC_NODE = 96.8674
ARG_OF_PERICENTER = 317.0227
MEAN_ANOMALY   = 42.9714

EPHEMERIS_TYPE = 0
CLASSIFICATION_TYPE = U
NORAD_CAT_ID   = 13819
ELEMENT_SET_NO = 999
REV_AT_EPOCH   = 34600
BSTAR          = .34829896E-3
MEAN_MOTION_DOT = .15834E-3
MEAN_MOTION_DDOT = 0

CCSDS_OMM_VERS = 2.0
CREATION_DATE  = 
ORIGINATOR     = 

OBJECT_NAME    = SL-3 R/B
OBJECT_ID      = 1983-075B
CENTER_NAME    = EARTH
REF_FRAME      = TEME
TIME_SYSTEM    = UTC
MEAN_ELEMENT_THEORY = SGP/SGP4

EPOCH          = 2025-12-22T22:45:55.273824
MEAN_MOTION    = 15.36329746
ECCENTRICITY   = .00238117
INCLINATION    = 97.6106
RA_OF_ASC_NODE = 353.7756
ARG_OF_PERICENTER = 139.9427
MEAN_ANOMALY   = 220.3578

EPHEMERIS_TYPE = 0
CLASSIFICATION_TYPE = U
NORAD_CAT_ID   = 14208
ELEMENT_SET_NO = 999
REV_AT_EPOCH   = 31836
BSTAR          = .32362963E-3
MEAN_MOTION_DOT = .11489E-3
MEAN_MOTION_DDOT = 0

CCSDS_OMM_VERS = 2.0
CREATION_DATE  = 
ORIGINATOR     = 

OBJECT_NAME    = COSMOS 1536
OBJECT_ID      = 1984-013A
CENTER_NAME    = EARTH
REF_FRAME      = TEME
TIME_SYSTEM    = UTC
MEAN_ELEMENT_THEORY = SGP/SGP4

EPOCH          = 2025-12-22T22:15:16.304256
MEAN_MOTION    = 15.22630662
ECCENTRICITY   = .00143231
INCLINATION    = 82.5442
RA_OF_ASC_NODE = 184.0602
ARG_OF_PERICENTER = 187.8294
MEAN_ANOMALY   = 172.2722

EPHEMERIS_TYPE = 0
CLASSIFICATION_TYPE = U
NORAD_CAT_ID   = 14699
ELEMENT_SET_NO = 999
REV_AT_EPOCH   = 26093
BSTAR          = .29738804E-3
MEAN_MOTION_DOT = .6966E-4
MEAN_MOTION_DDOT = 0

CCSDS_OMM_VERS = 2.0
CREATION_DATE  = 
ORIGINATOR     = 

OBJECT_NAME    = SL-14 R/B
OBJECT_ID      = 1984-027B
CENTER_NAME    = EARTH
REF_FRAME      = TEME
TIME_SYSTEM    = UTC
MEAN_ELEMENT_THEORY = SGP/SGP4

EPOCH          = 2025-12-22T20:36:43.744896
MEAN_MOTION    = 14.85884514
ECCENTRICITY   = .00167645
INCLINATION    = 82.5421
RA_OF_ASC_NODE = 317.0663
ARG_OF_PERICENTER = 224.3824
MEAN_ANOMALY   = 135.6050

EPHEMERIS_TYPE = 0
CLASSIFICATION_TYPE = U
NORAD_CAT_ID   = 14820
ELEMENT_SET_NO = 999
REV_AT_EPOCH   = 23622
BSTAR          = .50590685E-4
MEAN_MOTION_DOT = .466E-5
MEAN_MOTION_DDOT = 0

CCSDS_OMM_VERS = 2.0
CREATION_DATE  = 
ORIGINATOR     = 

OBJECT_NAME    = SL-8 R/B
OBJECT_ID      = 1985-006B
CENTER_NAME    = EARTH
REF_FRAME      = TEME
TIME_SYSTEM    = UTC
MEAN_ELEMENT_THEORY = SGP/SGP4

EPOCH          = 2025-12-22T20:41:58.784352
MEAN_MOTION    = 14.37726911
ECCENTRICITY   = .00191247
INCLINATION    = 74.0460
RA_OF_ASC_NODE = 42.5107
ARG_OF_PERICENTER = 332.6131
MEAN_ANOMALY   = 200.6940

EPHEMERIS_TYPE = 0
CLASSIFICATION_TYPE = U
NORAD_CAT_ID   = 15483
ELEMENT_SET_NO = 999
REV_AT_EPOCH   = 14298
BSTAR          = .89908392E-4
MEAN_MOTION_DOT = .245E-5
MEAN_MOTION_DDOT = 0

CCSDS_OMM_VERS = 2.0
CREATION_DATE  = 
ORIGINATOR     = 

OBJECT_NAME    = SL-12 R/B(2)
OBJECT_ID      = 1985-042D
CENTER_NAME    = EARTH
REF_FRAME      = TEME
TIME_SYSTEM    = UTC
MEAN_ELEMENT_THEORY = SGP/SGP4

EPOCH          = 2025-12-22T21:04:30.701568
MEAN_MOTION    = 14.21954854
ECCENTRICITY   = .00373566
INCLINATION    = 71.1073
RA_OF_ASC_NODE = 250.0020
ARG_OF_PERICENTER = 246.5821
MEAN_ANOMALY   = 185.8862

EPHEMERIS_TYPE = 0
CLASSIFICATION_TYPE = U
NORAD_CAT_ID   = 15772
ELEMENT_SET_NO = 999
REV_AT_EPOCH   = 10347
BSTAR          = .42440661E-4
MEAN_MOTION_DOT = .46E-6
MEAN_MOTION_DDOT = 0

CCSDS_OMM_VERS = 2.0
CREATION_DATE  = 
ORIGINATOR     = 

OBJECT_NAME    = SL-14 R/B
OBJECT_ID      = 1985-069B
CENTER_NAME    = EARTH
REF_FRAME      = TEME
TIME_SYSTEM    = UTC
MEAN_ELEMENT_THEORY = SGP/SGP4

EPOCH          = 2025-12-22T19:11:34.387584
MEAN_MOTION    = 14.86335324
ECCENTRICITY   = .00203387
INCLINATION    = 82.5273
RA_OF_ASC_NODE = 97.2460
ARG_OF_PERICENTER = 87.5919
MEAN_ANOMALY   = 272.7626

EPHEMERIS_TYPE = 0
CLASSIFICATION_TYPE = U
NORAD_CAT_ID   = 15945
ELEMENT_SET_NO = 999
REV_AT_EPOCH   = 16141
BSTAR          = .51985037E-4
MEAN_MOTION_DOT = .484E-5
MEAN_MOTION_DDOT = 0

CCSDS_OMM_VERS = 2.0
CREATION_DATE  = 
ORIGINATOR     = 

OBJECT_NAME    = SL-16 R/B
OBJECT_ID      = 1985-097B
CENTER_NAME    = EARTH
REF_FRAME      = TEME
TIME_SYSTEM    = UTC
MEAN_ELEMENT_THEORY = SGP/SGP4

EPOCH          = 2025-12-22T22:45:49.281120
MEAN_MOTION    = 14.16587832
ECCENTRICITY   = .00073719
INCLINATION    = 71.0038
RA_OF_ASC_NODE = 302.1106
ARG_OF_PERICENTER = 354.5565
MEAN_ANOMALY   = 69.9367

EPHEMERIS_TYPE = 0
CLASSIFICATION_TYPE = U
NORAD_CAT_ID   = 16182
ELEMENT_SET_NO = 999
REV_AT_EPOCH   = 7636
BSTAR          = -.33722159E-4
MEAN_MOTION_DOT = -.115E-5
MEAN_MOTION_DDOT = 0

CCSDS_OMM_VERS = 2.0
CREATION_DATE  = 
ORIGINATOR     = 

OBJECT_NAME    = SL-14 R/B
OBJECT_ID      = 1986-006B
CENTER_NAME    = EARTH
REF_FRAME      = TEME
TIME_SYSTEM    = UTC
MEAN_ELEMENT_THEORY = SGP/SGP4

EPOCH          = 2025-12-22T22:19:55.354656
MEAN_MOTION    = 14.86683956
ECCENTRICITY   = .00770639
INCLINATION    = 82.5268
RA_OF_ASC_NODE = 331.9617
ARG_OF_PERICENTER = 165.9599
MEAN_ANOMALY   = 194.3787

EPHEMERIS_TYPE = 0
CLASSIFICATION_TYPE = U
NORAD_CAT_ID   = 16496
ELEMENT_SET_NO = 999
REV_AT_EPOCH   = 13780
BSTAR          = .59213815E-4
MEAN_MOTION_DOT = .583E-5
MEAN_MOTION_DDOT = 0

CCSDS_OMM_VERS = 2.0
CREATION_DATE  = 
ORIGINATOR     = 

OBJECT_NAME    = COSMOS 1743
OBJECT_ID      = 1986-034A
CENTER_NAME    = EARTH
REF_FRAME      = TEME
TIME_SYSTEM    = UTC
MEAN_ELEMENT_THEORY = SGP/SGP4

EPOCH          = 2025-12-22T20:07:47.980992
MEAN_MOTION    = 15.52697265
ECCENTRICITY   = .00049232
INCLINATION    = 82.5349
RA_OF_ASC_NODE = 154.0975
ARG_OF_PERICENTER = 210.5651
MEAN_ANOMALY   = 149.5315

EPHEMERIS_TYPE = 0
CLASSIFICATION_TYPE = U
NORAD_CAT_ID   = 16719
ELEMENT_SET_NO = 999
REV_AT_EPOCH   = 16830
BSTAR          = .51304053E-3
MEAN_MOTION_DOT = .31758E-3
MEAN_MOTION_DDOT = 0

